{
"type": "FeatureCollection",
"name": "addresses",
"crs": { "type": "name", "properties": { "name": "urn:ogc:def:crs:OGC:1.3:CRS84" } },
"features": [
{ "type": "Feature", "properties": { "osm_id": 6357009385, "addr:housenumber": "104", "tourism": "hotel", "name": "Hostal Icemar", "amenity": null, "operator": null, "office": null, "shop": null, "leisure": null, "phone": "+5372021244", "opening_hours": "24\/7", "addr:street": "Calle 16", "website": null, "cuisine": null, "addr:city": null, "short_name": null, "email": null, "addr:postcode": null, "name:en": null, "name:es": null, "addr:unit": null, "smoking": null, "description": null, "studio": null, "capacity": null, "wheelchair": null, "delivery": null, "takeaway": null, "internet_access": null, "internet_access:fee": null, "rooms": null, "level": null, "amenity_1": null, "name:he": null }, "geometry": { "type": "Point", "coordinates": [ -82.4216916, 23.1265477 ] } },
{ "type": "Feature", "properties": { "osm_id": 3469900237, "addr:housenumber": "105", "tourism": null, "name": "Paladar La Esperanza", "amenity": "restaurant", "operator": "Particular", "office": null, "shop": null, "leisure": null, "phone": "+53 7 202 4361", "opening_hours": "Mo-Sa 19:00-23:00", "addr:street": "16", "website": "https:\/\/www.alamesacuba.com\/en\/la-habana\/restaurant\/la-esperanza\/", "cuisine": "international", "addr:city": "Habana", "short_name": "La Esperanza", "email": "paladar.laesperanza@gmail.com", "addr:postcode": null, "name:en": null, "name:es": null, "addr:unit": null, "smoking": null, "description": null, "studio": null, "capacity": null, "wheelchair": null, "delivery": null, "takeaway": null, "internet_access": null, "internet_access:fee": null, "rooms": null, "level": null, "amenity_1": null, "name:he": null }, "geometry": { "type": "Point", "coordinates": [ -82.4213465, 23.1267393 ] } },
{ "type": "Feature", "properties": { "osm_id": 4599075489, "addr:housenumber": "1410", "tourism": "hotel", "name": "Havana Oceanfront Condo", "amenity": null, "operator": null, "office": null, "shop": null, "leisure": null, "phone": "19043185902", "opening_hours": null, "addr:street": "Avenida 1ra 1410", "website": "https:\/\/www.havanaoceanfrontcondo.com\/", "cuisine": null, "addr:city": null, "short_name": null, "email": "havanaoceanfrontcondo@gmail.com", "addr:postcode": "10300", "name:en": null, "name:es": null, "addr:unit": null, "smoking": null, "description": null, "studio": null, "capacity": null, "wheelchair": null, "delivery": null, "takeaway": null, "internet_access": null, "internet_access:fee": null, "rooms": null, "level": null, "amenity_1": null, "name:he": null }, "geometry": { "type": "Point", "coordinates": [ -82.422078, 23.1275619 ] } },
{ "type": "Feature", "properties": { "osm_id": 5349605421, "addr:housenumber": "7", "tourism": "guest_house", "name": "La Terraza de Mayra", "amenity": null, "operator": null, "office": null, "shop": null, "leisure": null, "phone": null, "opening_hours": "24\/7", "addr:street": "Calle 12", "website": "http:\/\/mayra.manicato.net", "cuisine": null, "addr:city": null, "short_name": null, "email": "inn.support@manicato.net", "addr:postcode": "11300", "name:en": "La Terraza de Mayra", "name:es": "La Terraza de Mayra", "addr:unit": null, "smoking": null, "description": null, "studio": null, "capacity": null, "wheelchair": null, "delivery": null, "takeaway": null, "internet_access": null, "internet_access:fee": null, "rooms": null, "level": null, "amenity_1": null, "name:he": null }, "geometry": { "type": "Point", "coordinates": [ -82.4208804, 23.1280617 ] } },
{ "type": "Feature", "properties": { "osm_id": 6538390294, "addr:housenumber": "303", "tourism": null, "name": "Consejo de Iglesias de Cuba", "amenity": null, "operator": null, "office": "ngo", "shop": null, "leisure": null, "phone": null, "opening_hours": null, "addr:street": "Calle 14", "website": null, "cuisine": null, "addr:city": null, "short_name": null, "email": null, "addr:postcode": null, "name:en": null, "name:es": null, "addr:unit": null, "smoking": null, "description": null, "studio": null, "capacity": null, "wheelchair": null, "delivery": null, "takeaway": null, "internet_access": null, "internet_access:fee": null, "rooms": null, "level": null, "amenity_1": null, "name:he": null }, "geometry": { "type": "Point", "coordinates": [ -82.4192347, 23.1259896 ] } },
{ "type": "Feature", "properties": { "osm_id": 4816482826, "addr:housenumber": "152", "tourism": null, "name": "MAI La Comercial", "amenity": null, "operator": null, "office": null, "shop": "supermarket", "leisure": null, "phone": null, "opening_hours": "Mo-Sa 09:00-18:00; Su 09:00-13:00", "addr:street": "Calle 26 y 15", "website": null, "cuisine": null, "addr:city": null, "short_name": null, "email": null, "addr:postcode": "10400", "name:en": "MAI La Comercial", "name:es": "MAI La Comercial", "addr:unit": null, "smoking": null, "description": null, "studio": null, "capacity": null, "wheelchair": null, "delivery": null, "takeaway": null, "internet_access": null, "internet_access:fee": null, "rooms": null, "level": null, "amenity_1": null, "name:he": null }, "geometry": { "type": "Point", "coordinates": [ -82.4089011, 23.1257004 ] } },
{ "type": "Feature", "properties": { "osm_id": 5349601722, "addr:housenumber": "1311", "tourism": "guest_house", "name": "Residencias Alfonso González", "amenity": null, "operator": null, "office": null, "shop": null, "leisure": null, "phone": null, "opening_hours": null, "addr:street": "Calle 17", "website": "http:\/\/rag.manicato.net", "cuisine": null, "addr:city": null, "short_name": null, "email": "inn.support@manicato.net", "addr:postcode": "10400", "name:en": "Residencias Alfonso González", "name:es": "Residencias Alfonso González", "addr:unit": null, "smoking": null, "description": null, "studio": null, "capacity": null, "wheelchair": null, "delivery": null, "takeaway": null, "internet_access": null, "internet_access:fee": null, "rooms": null, "level": null, "amenity_1": null, "name:he": null }, "geometry": { "type": "Point", "coordinates": [ -82.4067227, 23.1261128 ] } },
{ "type": "Feature", "properties": { "osm_id": 5382108026, "addr:housenumber": "1302", "tourism": "hostel", "name": "Casa Tete", "amenity": null, "operator": null, "office": null, "shop": null, "leisure": null, "phone": "+5378307315", "opening_hours": null, "addr:street": "Calle 19", "website": null, "cuisine": null, "addr:city": null, "short_name": null, "email": null, "addr:postcode": null, "name:en": null, "name:es": null, "addr:unit": null, "smoking": null, "description": null, "studio": null, "capacity": null, "wheelchair": null, "delivery": null, "takeaway": null, "internet_access": null, "internet_access:fee": null, "rooms": null, "level": null, "amenity_1": null, "name:he": null }, "geometry": { "type": "Point", "coordinates": [ -82.4058519, 23.1257299 ] } },
{ "type": "Feature", "properties": { "osm_id": 5231117092, "addr:housenumber": "273", "tourism": "hostel", "name": "Casa Havana Vintage", "amenity": null, "operator": null, "office": null, "shop": null, "leisure": null, "phone": null, "opening_hours": null, "addr:street": "Calle 22", "website": null, "cuisine": null, "addr:city": "Vedado, La Habana", "short_name": null, "email": null, "addr:postcode": null, "name:en": null, "name:es": null, "addr:unit": "e\/ 17 y 19", "smoking": null, "description": null, "studio": null, "capacity": null, "wheelchair": null, "delivery": null, "takeaway": null, "internet_access": null, "internet_access:fee": null, "rooms": null, "level": null, "amenity_1": null, "name:he": null }, "geometry": { "type": "Point", "coordinates": [ -82.4059615, 23.1261174 ] } },
{ "type": "Feature", "properties": { "osm_id": 3890825800, "addr:housenumber": "1265", "tourism": "guest_house", "name": "Casa BelkiSacha", "amenity": null, "operator": "Sra. Belkis Maura", "office": null, "shop": null, "leisure": null, "phone": "+53 78308402 +53 52728808", "opening_hours": "24\/7", "addr:street": "Calle 19", "website": "http:\/\/fb.me\/belkisacha", "cuisine": null, "addr:city": "Habana", "short_name": null, "email": "belkisacha@gmail.com", "addr:postcode": "10400", "name:en": null, "name:es": null, "addr:unit": null, "smoking": "separated", "description": null, "studio": null, "capacity": null, "wheelchair": null, "delivery": null, "takeaway": null, "internet_access": null, "internet_access:fee": null, "rooms": null, "level": null, "amenity_1": null, "name:he": null }, "geometry": { "type": "Point", "coordinates": [ -82.4052997, 23.125865 ] } },
{ "type": "Feature", "properties": { "osm_id": 6422208285, "addr:housenumber": "1279", "tourism": "apartment", "name": "Casa Raul", "amenity": null, "operator": null, "office": null, "shop": null, "leisure": null, "phone": "78331042", "opening_hours": "Mo-Su 09:00-17:00", "addr:street": "Calle 19", "website": null, "cuisine": null, "addr:city": null, "short_name": null, "email": null, "addr:postcode": null, "name:en": "Soft room", "name:es": null, "addr:unit": null, "smoking": null, "description": null, "studio": null, "capacity": null, "wheelchair": null, "delivery": null, "takeaway": null, "internet_access": null, "internet_access:fee": null, "rooms": null, "level": null, "amenity_1": null, "name:he": null }, "geometry": { "type": "Point", "coordinates": [ -82.4055744, 23.1259452 ] } },
{ "type": "Feature", "properties": { "osm_id": 4269938704, "addr:housenumber": "1008", "tourism": null, "name": "Empresa de Grabaciones y Ediciones Musicales (EGREM)", "amenity": "studio", "operator": null, "office": null, "shop": null, "leisure": null, "phone": "(537)72041524", "opening_hours": "Mo-Fr 08:00 - 17:00", "addr:street": "3ra", "website": "http:\/\/promociones.egrem.co.cu", "cuisine": null, "addr:city": null, "short_name": null, "email": null, "addr:postcode": null, "name:en": null, "name:es": null, "addr:unit": null, "smoking": null, "description": "Casa Matriz de la Empresa de Grabaciones y Ediciones Musicales", "studio": "Casa_Matriz", "capacity": null, "wheelchair": null, "delivery": null, "takeaway": null, "internet_access": null, "internet_access:fee": null, "rooms": null, "level": null, "amenity_1": null, "name:he": null }, "geometry": { "type": "Point", "coordinates": [ -82.4184301, 23.1272346 ] } },
{ "type": "Feature", "properties": { "osm_id": 4818485723, "addr:housenumber": "305", "tourism": null, "name": "J&Z", "amenity": "bar", "operator": null, "office": null, "shop": null, "leisure": null, "phone": "+5372024408", "opening_hours": "24\/7", "addr:street": "Calle 10", "website": "https:\/\/conocecuba.com\/lostreschinitos", "cuisine": "coffee_shop;italian;international;caribbean;breakfast;sandwich", "addr:city": null, "short_name": null, "email": null, "addr:postcode": "11300", "name:en": "3 Chinitos", "name:es": "3 Chinitos", "addr:unit": null, "smoking": null, "description": null, "studio": null, "capacity": null, "wheelchair": null, "delivery": null, "takeaway": null, "internet_access": null, "internet_access:fee": null, "rooms": null, "level": null, "amenity_1": null, "name:he": null }, "geometry": { "type": "Point", "coordinates": [ -82.4174216, 23.1270411 ] } },
{ "type": "Feature", "properties": { "osm_id": 4747736326, "addr:housenumber": "112", "tourism": "guest_house", "name": "The Red Round Wall", "amenity": null, "operator": "Raúl Valdés", "office": null, "shop": null, "leisure": null, "phone": "+5372036096", "opening_hours": "Mo-Su 05:00-12:00", "addr:street": "10", "website": "https:\/\/www.airbnb.es\/rooms\/17023986", "cuisine": null, "addr:city": null, "short_name": null, "email": "valdeshernandezadrian@gmail.com", "addr:postcode": "11300", "name:en": "The Red Round Wall", "name:es": "The Red Round Wall", "addr:unit": null, "smoking": null, "description": null, "studio": null, "capacity": null, "wheelchair": null, "delivery": null, "takeaway": null, "internet_access": null, "internet_access:fee": null, "rooms": null, "level": null, "amenity_1": null, "name:he": null }, "geometry": { "type": "Point", "coordinates": [ -82.4190128, 23.1282933 ] } },
{ "type": "Feature", "properties": { "osm_id": 4720918589, "addr:housenumber": "112", "tourism": "guest_house", "name": "The Red Round Wall", "amenity": null, "operator": "Lourdes", "office": null, "shop": null, "leisure": null, "phone": "+5372036096", "opening_hours": "Mo-Su 05:00-12:00", "addr:street": "10", "website": "https:\/\/www.airbnb.es\/rooms\/17023986", "cuisine": null, "addr:city": null, "short_name": null, "email": "valdeshernandezadrian@gmail.com", "addr:postcode": null, "name:en": "The Red Round Wall", "name:es": "The Red Round Wall", "addr:unit": null, "smoking": null, "description": null, "studio": null, "capacity": null, "wheelchair": null, "delivery": null, "takeaway": null, "internet_access": null, "internet_access:fee": null, "rooms": null, "level": null, "amenity_1": null, "name:he": null }, "geometry": { "type": "Point", "coordinates": [ -82.419031, 23.1283059 ] } },
{ "type": "Feature", "properties": { "osm_id": 4104364890, "addr:housenumber": "112 Bajos", "tourism": null, "name": "Taller Calle 8", "amenity": null, "operator": "Elayne", "office": null, "shop": "car_repair", "leisure": null, "phone": "+5372064123", "opening_hours": "Mo-Fr 08:00-18:00", "addr:street": "Calle 8", "website": "https:\/\/facebook.com\/tallercalle8", "cuisine": null, "addr:city": null, "short_name": null, "email": "hugojr1997@gmail.com", "addr:postcode": "11300", "name:en": null, "name:es": null, "addr:unit": null, "smoking": null, "description": null, "studio": null, "capacity": null, "wheelchair": null, "delivery": null, "takeaway": null, "internet_access": null, "internet_access:fee": null, "rooms": null, "level": null, "amenity_1": null, "name:he": null }, "geometry": { "type": "Point", "coordinates": [ -82.4179227, 23.1286712 ] } },
{ "type": "Feature", "properties": { "osm_id": 3682829861, "addr:housenumber": "122", "tourism": null, "name": "Nero Di Seppia", "amenity": "restaurant", "operator": null, "office": null, "shop": null, "leisure": null, "phone": "+5354787871", "opening_hours": null, "addr:street": "6", "website": "https:\/\/www.alamesacuba.com\/en\/la-habana\/restaurant\/nero-di-seppia\/", "cuisine": "italian", "addr:city": "La Habana", "short_name": null, "email": "walterginevri@nauta.cu", "addr:postcode": "11300", "name:en": null, "name:es": null, "addr:unit": null, "smoking": "outside", "description": null, "studio": null, "capacity": "50", "wheelchair": "yes", "delivery": "yes", "takeaway": "yes", "internet_access": null, "internet_access:fee": null, "rooms": null, "level": null, "amenity_1": null, "name:he": null }, "geometry": { "type": "Point", "coordinates": [ -82.4167875, 23.1288434 ] } },
{ "type": "Feature", "properties": { "osm_id": 4986729224, "addr:housenumber": "319", "tourism": null, "name": "FINCIMEX Oficina Central", "amenity": null, "operator": null, "office": "government", "shop": null, "leisure": null, "phone": "+5372047949", "opening_hours": "Mo-Fr 09:00-17:00", "addr:street": "Calle 8", "website": "http:\/\/www.fincimex.com.cu", "cuisine": null, "addr:city": null, "short_name": null, "email": "angelm@cimex.com.cu", "addr:postcode": null, "name:en": null, "name:es": null, "addr:unit": null, "smoking": null, "description": null, "studio": null, "capacity": null, "wheelchair": null, "delivery": null, "takeaway": null, "internet_access": null, "internet_access:fee": null, "rooms": null, "level": null, "amenity_1": null, "name:he": null }, "geometry": { "type": "Point", "coordinates": [ -82.4165494, 23.1272148 ] } },
{ "type": "Feature", "properties": { "osm_id": 2656799608, "addr:housenumber": "313", "tourism": null, "name": "Oficina Nacional de Diseño ONDi", "amenity": null, "operator": null, "office": "government", "shop": null, "leisure": null, "phone": null, "opening_hours": null, "addr:street": "8", "website": "http:\/\/www.ondi.cu", "cuisine": null, "addr:city": null, "short_name": null, "email": null, "addr:postcode": null, "name:en": "National Office of Design", "name:es": null, "addr:unit": null, "smoking": null, "description": null, "studio": null, "capacity": null, "wheelchair": null, "delivery": null, "takeaway": null, "internet_access": null, "internet_access:fee": null, "rooms": null, "level": null, "amenity_1": null, "name:he": null }, "geometry": { "type": "Point", "coordinates": [ -82.4161069, 23.1270757 ] } },
{ "type": "Feature", "properties": { "osm_id": 4005812765, "addr:housenumber": "601", "tourism": null, "name": "Miramar 601 espacio de arte contemporaneo", "amenity": null, "operator": "Miramar 601", "office": null, "shop": "art", "leisure": null, "phone": null, "opening_hours": null, "addr:street": "5ta Avenida", "website": null, "cuisine": null, "addr:city": "Miramar, Playa, Habana", "short_name": null, "email": null, "addr:postcode": null, "name:en": null, "name:es": null, "addr:unit": null, "smoking": null, "description": null, "studio": null, "capacity": null, "wheelchair": null, "delivery": null, "takeaway": null, "internet_access": null, "internet_access:fee": null, "rooms": null, "level": null, "amenity_1": null, "name:he": null }, "geometry": { "type": "Point", "coordinates": [ -82.4150828, 23.1265177 ] } },
{ "type": "Feature", "properties": { "osm_id": 4443130490, "addr:housenumber": "124", "tourism": null, "name": "Toros & Tapas", "amenity": "restaurant", "operator": null, "office": null, "shop": null, "leisure": null, "phone": "+5372021548", "opening_hours": "Mo-Su 12:00-00:00", "addr:street": "Calle 6", "website": "https:\/\/www.facebook.com\/torostapashavana", "cuisine": "spanish", "addr:city": null, "short_name": null, "email": "torostapas@gmail.com", "addr:postcode": null, "name:en": null, "name:es": null, "addr:unit": null, "smoking": null, "description": null, "studio": null, "capacity": null, "wheelchair": null, "delivery": null, "takeaway": null, "internet_access": null, "internet_access:fee": null, "rooms": null, "level": null, "amenity_1": null, "name:he": null }, "geometry": { "type": "Point", "coordinates": [ -82.4166167, 23.1287845 ] } },
{ "type": "Feature", "properties": { "osm_id": 4666034491, "addr:housenumber": "205", "tourism": "guest_house", "name": "Pablo Balari", "amenity": null, "operator": null, "office": null, "shop": null, "leisure": null, "phone": "+5372027059", "opening_hours": "24\/7", "addr:street": "3ra Avenida", "website": "http:\/\/www.paraisohabana.com", "cuisine": null, "addr:city": null, "short_name": null, "email": "pablobalari2001@yahoo.es", "addr:postcode": null, "name:en": null, "name:es": null, "addr:unit": null, "smoking": null, "description": null, "studio": null, "capacity": null, "wheelchair": null, "delivery": null, "takeaway": null, "internet_access": null, "internet_access:fee": null, "rooms": null, "level": null, "amenity_1": null, "name:he": null }, "geometry": { "type": "Point", "coordinates": [ -82.4151339, 23.129508 ] } },
{ "type": "Feature", "properties": { "osm_id": 5231099888, "addr:housenumber": null, "tourism": "hostel", "name": "Casa Mayra y Leonides Miramar", "amenity": null, "operator": null, "office": null, "shop": null, "leisure": null, "phone": null, "opening_hours": null, "addr:street": "3ra Avenida", "website": null, "cuisine": null, "addr:city": "La Habana", "short_name": null, "email": null, "addr:postcode": null, "name:en": null, "name:es": null, "addr:unit": "e\/ 0 y 2", "smoking": null, "description": null, "studio": null, "capacity": null, "wheelchair": null, "delivery": null, "takeaway": null, "internet_access": null, "internet_access:fee": null, "rooms": null, "level": null, "amenity_1": null, "name:he": null }, "geometry": { "type": "Point", "coordinates": [ -82.4142348, 23.1302037 ] } },
{ "type": "Feature", "properties": { "osm_id": 4818485722, "addr:housenumber": "115", "tourism": null, "name": "Balsanyda y Asociados", "amenity": null, "operator": null, "office": "lawyer", "shop": null, "leisure": null, "phone": "+5372040672", "opening_hours": null, "addr:street": "Calle 2", "website": null, "cuisine": null, "addr:city": null, "short_name": null, "email": "b&s@compunet.co.cu", "addr:postcode": "11300", "name:en": "Basanyda & Asociados", "name:es": null, "addr:unit": null, "smoking": null, "description": null, "studio": null, "capacity": null, "wheelchair": null, "delivery": null, "takeaway": null, "internet_access": null, "internet_access:fee": null, "rooms": null, "level": null, "amenity_1": null, "name:he": null }, "geometry": { "type": "Point", "coordinates": [ -82.4154467, 23.1309826 ] } },
{ "type": "Feature", "properties": { "osm_id": 5225709021, "addr:housenumber": "105 bajo", "tourism": null, "name": "PIKARA La Puntilla", "amenity": null, "operator": null, "office": null, "shop": "cosmetics", "leisure": null, "phone": "+72053322", "opening_hours": "Mo-Sa 09:00-18:00", "addr:street": "Calle 0", "website": null, "cuisine": null, "addr:city": null, "short_name": null, "email": null, "addr:postcode": null, "name:en": null, "name:es": null, "addr:unit": null, "smoking": null, "description": null, "studio": null, "capacity": null, "wheelchair": null, "delivery": null, "takeaway": null, "internet_access": null, "internet_access:fee": null, "rooms": null, "level": null, "amenity_1": null, "name:he": null }, "geometry": { "type": "Point", "coordinates": [ -82.4147193, 23.1316719 ] } },
{ "type": "Feature", "properties": { "osm_id": 4753837526, "addr:housenumber": "105", "tourism": null, "name": "PIKARA", "amenity": null, "operator": null, "office": null, "shop": "beauty", "leisure": null, "phone": "+5372053322", "opening_hours": "Mo-Sa 09:00-18:00", "addr:street": "Calle 0", "website": null, "cuisine": null, "addr:city": null, "short_name": null, "email": null, "addr:postcode": "11300", "name:en": null, "name:es": null, "addr:unit": null, "smoking": null, "description": null, "studio": null, "capacity": null, "wheelchair": null, "delivery": null, "takeaway": null, "internet_access": null, "internet_access:fee": null, "rooms": null, "level": null, "amenity_1": null, "name:he": null }, "geometry": { "type": "Point", "coordinates": [ -82.4146069, 23.1315999 ] } },
{ "type": "Feature", "properties": { "osm_id": 4721025290, "addr:housenumber": "#511", "tourism": null, "name": "Amigos Del Mar", "amenity": "restaurant", "operator": null, "office": null, "shop": null, "leisure": null, "phone": "72031196", "opening_hours": "Mo-Su 12:00-00:00", "addr:street": "Calle Cero", "website": null, "cuisine": "seafood", "addr:city": null, "short_name": null, "email": null, "addr:postcode": null, "name:en": null, "name:es": null, "addr:unit": null, "smoking": null, "description": null, "studio": null, "capacity": null, "wheelchair": null, "delivery": null, "takeaway": null, "internet_access": "wlan", "internet_access:fee": null, "rooms": null, "level": null, "amenity_1": null, "name:he": null }, "geometry": { "type": "Point", "coordinates": [ -82.4114828, 23.1284096 ] } },
{ "type": "Feature", "properties": { "osm_id": 2948192957, "addr:housenumber": "57", "tourism": null, "name": "El Cocinero", "amenity": "restaurant", "operator": "Particular", "office": null, "shop": null, "leisure": null, "phone": "+53 7 8322355", "opening_hours": "Mo-Su 16:00-00:00", "addr:street": "Calle 26", "website": "http:\/\/www.elcocinerohabana.com\/", "cuisine": "international", "addr:city": null, "short_name": null, "email": "elcocinerohabana@yahoo.es", "addr:postcode": null, "name:en": null, "name:es": "El Cocinero", "addr:unit": null, "smoking": null, "description": null, "studio": null, "capacity": null, "wheelchair": null, "delivery": null, "takeaway": null, "internet_access": null, "internet_access:fee": null, "rooms": null, "level": null, "amenity_1": null, "name:he": null }, "geometry": { "type": "Point", "coordinates": [ -82.4099035, 23.1273801 ] } },
{ "type": "Feature", "properties": { "osm_id": 5012596821, "addr:housenumber": "115", "tourism": null, "name": "Ring Pizza", "amenity": "fast_food", "operator": null, "office": null, "shop": null, "leisure": null, "phone": "+53 78303233", "opening_hours": "Mo-Su 12:00-00:00", "addr:street": "Calle 26", "website": null, "cuisine": "pizza", "addr:city": null, "short_name": null, "email": null, "addr:postcode": null, "name:en": null, "name:es": "Ring Pizza", "addr:unit": null, "smoking": null, "description": null, "studio": null, "capacity": null, "wheelchair": null, "delivery": null, "takeaway": null, "internet_access": null, "internet_access:fee": null, "rooms": null, "level": null, "amenity_1": null, "name:he": null }, "geometry": { "type": "Point", "coordinates": [ -82.4091272, 23.1263917 ] } },
{ "type": "Feature", "properties": { "osm_id": 4754913031, "addr:housenumber": "1359", "tourism": "guest_house", "name": "Apartmentos Yani", "amenity": null, "operator": "Yani", "office": null, "shop": null, "leisure": null, "phone": "+5352630425", "opening_hours": "Mo-Su 08:00-20:00", "addr:street": "Calle 13", "website": null, "cuisine": null, "addr:city": null, "short_name": null, "email": "yanihavana@gmail.com", "addr:postcode": null, "name:en": "Apartments Yani", "name:es": null, "addr:unit": null, "smoking": null, "description": null, "studio": null, "capacity": null, "wheelchair": null, "delivery": null, "takeaway": null, "internet_access": "wlan", "internet_access:fee": null, "rooms": null, "level": null, "amenity_1": null, "name:he": null }, "geometry": { "type": "Point", "coordinates": [ -82.4091107, 23.1269569 ] } },
{ "type": "Feature", "properties": { "osm_id": 5349599726, "addr:housenumber": "1353A", "tourism": "guest_house", "name": "Casa Orquídea", "amenity": null, "operator": null, "office": null, "shop": null, "leisure": null, "phone": null, "opening_hours": "24\/7", "addr:street": "Calle 13", "website": "http:\/\/orquidea.manicato.net", "cuisine": null, "addr:city": null, "short_name": null, "email": "inn.support@manicato.net", "addr:postcode": "10400", "name:en": "Casa Orquídea", "name:es": "Casa Orquídea", "addr:unit": null, "smoking": null, "description": null, "studio": null, "capacity": null, "wheelchair": null, "delivery": null, "takeaway": null, "internet_access": null, "internet_access:fee": null, "rooms": null, "level": null, "amenity_1": null, "name:he": null }, "geometry": { "type": "Point", "coordinates": [ -82.4088971, 23.1271566 ] } },
{ "type": "Feature", "properties": { "osm_id": 5376847223, "addr:housenumber": "236", "tourism": "guest_house", "name": "ALQUILER TOÑO", "amenity": null, "operator": "AVE", "office": null, "shop": null, "leisure": null, "phone": "+5354630603", "opening_hours": "24\/7", "addr:street": "Calle 11", "website": "https:\/\/vacacionescubablog.wordpress.com\/", "cuisine": null, "addr:city": null, "short_name": null, "email": "cirwkltda@gmail.com", "addr:postcode": null, "name:en": "MARTI HOSTAL", "name:es": null, "addr:unit": null, "smoking": null, "description": null, "studio": null, "capacity": null, "wheelchair": null, "delivery": null, "takeaway": null, "internet_access": null, "internet_access:fee": null, "rooms": null, "level": null, "amenity_1": null, "name:he": null }, "geometry": { "type": "Point", "coordinates": [ -82.4100458, 23.1279607 ] } },
{ "type": "Feature", "properties": { "osm_id": 4816443529, "addr:housenumber": "123 apto 15", "tourism": "guest_house", "name": "Casa María Elena", "amenity": null, "operator": null, "office": null, "shop": null, "leisure": null, "phone": null, "opening_hours": null, "addr:street": "Calle 24 entre 11 y 13", "website": null, "cuisine": null, "addr:city": null, "short_name": null, "email": null, "addr:postcode": "10400", "name:en": "Casa María Elena", "name:es": "Casa María Elena", "addr:unit": null, "smoking": null, "description": null, "studio": null, "capacity": null, "wheelchair": null, "delivery": null, "takeaway": null, "internet_access": null, "internet_access:fee": null, "rooms": null, "level": null, "amenity_1": null, "name:he": null }, "geometry": { "type": "Point", "coordinates": [ -82.4088693, 23.127968 ] } },
{ "type": "Feature", "properties": { "osm_id": 5244175724, "addr:housenumber": "1305", "tourism": null, "name": "Cafetería El Tunel", "amenity": "fast_food", "operator": null, "office": null, "shop": null, "leisure": null, "phone": "+5378350829", "opening_hours": "Mo-Su 11:00-22:00", "addr:street": "9na. (Línea)", "website": null, "cuisine": null, "addr:city": null, "short_name": null, "email": null, "addr:postcode": null, "name:en": null, "name:es": null, "addr:unit": null, "smoking": null, "description": null, "studio": null, "capacity": null, "wheelchair": null, "delivery": null, "takeaway": null, "internet_access": null, "internet_access:fee": null, "rooms": null, "level": null, "amenity_1": null, "name:he": null }, "geometry": { "type": "Point", "coordinates": [ -82.4095075, 23.1293825 ] } },
{ "type": "Feature", "properties": { "osm_id": 3107541078, "addr:housenumber": "11", "tourism": null, "name": "Paladar Rio Mar", "amenity": "restaurant", "operator": "Particular", "office": null, "shop": null, "leisure": null, "phone": "+5372094838", "opening_hours": "Sa-Fr 12:00-00:00", "addr:street": "3ra Avenida", "website": null, "cuisine": "fish;international;grill;diner;seafood;caribbean", "addr:city": null, "short_name": null, "email": "riomarbargrill@gmail.com", "addr:postcode": null, "name:en": null, "name:es": null, "addr:unit": null, "smoking": "isolated", "description": null, "studio": null, "capacity": null, "wheelchair": null, "delivery": "no", "takeaway": null, "internet_access": null, "internet_access:fee": null, "rooms": null, "level": null, "amenity_1": null, "name:he": null }, "geometry": { "type": "Point", "coordinates": [ -82.4118626, 23.1332268 ] } },
{ "type": "Feature", "properties": { "osm_id": 4931085023, "addr:housenumber": "1301A", "tourism": "guest_house", "name": "Hostal Zory", "amenity": null, "operator": null, "office": null, "shop": null, "leisure": null, "phone": "+5352916803", "opening_hours": "24\/7", "addr:street": "Calle 17", "website": "https:\/\/conocecuba.com\/hostalzory", "cuisine": null, "addr:city": null, "short_name": null, "email": "zoraydams@infomed.sld.cu", "addr:postcode": "10400", "name:en": "Hostal Zory", "name:es": "Hostal Zory", "addr:unit": null, "smoking": null, "description": null, "studio": null, "capacity": null, "wheelchair": null, "delivery": null, "takeaway": null, "internet_access": null, "internet_access:fee": null, "rooms": null, "level": null, "amenity_1": null, "name:he": null }, "geometry": { "type": "Point", "coordinates": [ -82.4063974, 23.1263478 ] } },
{ "type": "Feature", "properties": { "osm_id": 6161633686, "addr:housenumber": "1265", "tourism": "apartment", "name": "Oda al Mar", "amenity": null, "operator": "Rafael A. Broche Moreno", "office": null, "shop": null, "leisure": null, "phone": "+53 52761637", "opening_hours": "24\/7", "addr:street": "Calle 17 e\/ 20 y 22", "website": null, "cuisine": null, "addr:city": "Vedado, La Habana", "short_name": null, "email": "carter.rus.live@gmail.com", "addr:postcode": "10400", "name:en": null, "name:es": null, "addr:unit": null, "smoking": "outside", "description": "Cómodo apartamento con sala-cocina-comedor. Dos habitaciones. Baño. Y terraza destechada con vista a la ciudad y el mar. Localizada en una de las calles más céntricas del Vedado. En un barrio tranquilo y familiar.", "studio": null, "capacity": null, "wheelchair": null, "delivery": null, "takeaway": null, "internet_access": "wlan", "internet_access:fee": "no", "rooms": "2", "level": null, "amenity_1": null, "name:he": null }, "geometry": { "type": "Point", "coordinates": [ -82.4059425, 23.1266272 ] } },
{ "type": "Feature", "properties": { "osm_id": 4783927721, "addr:housenumber": "158", "tourism": "guest_house", "name": "Casa David & Marisol", "amenity": null, "operator": "David & Marisol", "office": null, "shop": null, "leisure": null, "phone": "+5378314969", "opening_hours": null, "addr:street": "Calle 22", "website": null, "cuisine": null, "addr:city": null, "short_name": null, "email": "david6506@nauta.cu", "addr:postcode": null, "name:en": "Casa David & Marisol", "name:es": "Casa David & Marisol", "addr:unit": null, "smoking": null, "description": null, "studio": null, "capacity": null, "wheelchair": null, "delivery": null, "takeaway": null, "internet_access": null, "internet_access:fee": null, "rooms": null, "level": null, "amenity_1": null, "name:he": null }, "geometry": { "type": "Point", "coordinates": [ -82.4075287, 23.1276232 ] } },
{ "type": "Feature", "properties": { "osm_id": 4816443524, "addr:housenumber": "1251", "tourism": null, "name": "Convento", "amenity": "place_of_worship", "operator": null, "office": null, "shop": null, "leisure": null, "phone": null, "opening_hours": null, "addr:street": "Calle 13 entre 20 y 22", "website": null, "cuisine": null, "addr:city": null, "short_name": null, "email": null, "addr:postcode": "10400", "name:en": "Convento", "name:es": "Convento", "addr:unit": null, "smoking": null, "description": null, "studio": null, "capacity": null, "wheelchair": null, "delivery": null, "takeaway": null, "internet_access": null, "internet_access:fee": null, "rooms": null, "level": null, "amenity_1": null, "name:he": null }, "geometry": { "type": "Point", "coordinates": [ -82.4071204, 23.1282044 ] } },
{ "type": "Feature", "properties": { "osm_id": 4887543322, "addr:housenumber": "215", "tourism": "guest_house", "name": null, "amenity": null, "operator": null, "office": null, "shop": null, "leisure": null, "phone": null, "opening_hours": null, "addr:street": "Calle 20", "website": null, "cuisine": null, "addr:city": null, "short_name": null, "email": null, "addr:postcode": null, "name:en": null, "name:es": null, "addr:unit": null, "smoking": null, "description": null, "studio": null, "capacity": null, "wheelchair": null, "delivery": null, "takeaway": null, "internet_access": null, "internet_access:fee": null, "rooms": null, "level": null, "amenity_1": null, "name:he": null }, "geometry": { "type": "Point", "coordinates": [ -82.4062404, 23.1278137 ] } },
{ "type": "Feature", "properties": { "osm_id": 3974816909, "addr:housenumber": "1216", "tourism": "guest_house", "name": "Casa Paco y Mercy", "amenity": null, "operator": null, "office": null, "shop": null, "leisure": null, "phone": "(53) 7833 5815", "opening_hours": null, "addr:street": "19 y 20", "website": "http:\/\/habanarentadecasa.com", "cuisine": null, "addr:city": "Vedado, La Habana", "short_name": null, "email": null, "addr:postcode": null, "name:en": null, "name:es": null, "addr:unit": null, "smoking": null, "description": "Entrada independiente de calle, baño, cocina, Agua F\/C, Garaje, terraza, aire acondicionado, TV, refrigerador, teléfono,...", "studio": null, "capacity": null, "wheelchair": "yes", "delivery": null, "takeaway": null, "internet_access": null, "internet_access:fee": null, "rooms": null, "level": null, "amenity_1": null, "name:he": null }, "geometry": { "type": "Point", "coordinates": [ -82.4048214, 23.1265475 ] } },
{ "type": "Feature", "properties": { "osm_id": 4569132190, "addr:housenumber": "257", "tourism": "guest_house", "name": "Casa Mylena y Otto", "amenity": null, "operator": null, "office": null, "shop": null, "leisure": null, "phone": null, "opening_hours": null, "addr:street": "Calle 20", "website": null, "cuisine": null, "addr:city": null, "short_name": null, "email": null, "addr:postcode": null, "name:en": null, "name:es": "Casa Mylena y Otto", "addr:unit": null, "smoking": null, "description": null, "studio": null, "capacity": null, "wheelchair": null, "delivery": null, "takeaway": null, "internet_access": null, "internet_access:fee": null, "rooms": null, "level": null, "amenity_1": null, "name:he": null }, "geometry": { "type": "Point", "coordinates": [ -82.4049686, 23.1267073 ] } },
{ "type": "Feature", "properties": { "osm_id": 1752013462, "addr:housenumber": "1219 Bajos", "tourism": "guest_house", "name": "Casa Mariana", "amenity": null, "operator": null, "office": null, "shop": null, "leisure": null, "phone": "+5378300471", "opening_hours": null, "addr:street": "17", "website": null, "cuisine": null, "addr:city": "Vedado, La Habana", "short_name": null, "email": null, "addr:postcode": null, "name:en": null, "name:es": null, "addr:unit": null, "smoking": "isolated", "description": null, "studio": null, "capacity": null, "wheelchair": "yes", "delivery": null, "takeaway": null, "internet_access": "yes", "internet_access:fee": "no", "rooms": "3", "level": null, "amenity_1": null, "name:he": null }, "geometry": { "type": "Point", "coordinates": [ -82.4048595, 23.1273111 ] } },
{ "type": "Feature", "properties": { "osm_id": 4688369489, "addr:housenumber": "260", "tourism": "guest_house", "name": "TamGus Sweet Habana", "amenity": null, "operator": "etecsa", "office": null, "shop": null, "leisure": null, "phone": "+53078307190", "opening_hours": null, "addr:street": "Calle 18", "website": "http:\/\/www.tamgus.net", "cuisine": null, "addr:city": null, "short_name": null, "email": "gustavo.fp@nauta.cu", "addr:postcode": "10440", "name:en": "TamGus Swett Habana", "name:es": "TamGus Sweet Habana", "addr:unit": null, "smoking": null, "description": null, "studio": null, "capacity": null, "wheelchair": null, "delivery": null, "takeaway": null, "internet_access": null, "internet_access:fee": null, "rooms": null, "level": null, "amenity_1": null, "name:he": null }, "geometry": { "type": "Point", "coordinates": [ -82.4043922, 23.1275098 ] } },
{ "type": "Feature", "properties": { "osm_id": 6194160888, "addr:housenumber": "258 bajos", "tourism": null, "name": "Renacer Arte Yoga Estudio", "amenity": null, "operator": null, "office": null, "shop": null, "leisure": "fitness_centre", "phone": "5378304310", "opening_hours": "Su 00:00-24:00; Mo-Fr 09:00-20:00", "addr:street": "Calle 18", "website": null, "cuisine": null, "addr:city": null, "short_name": null, "email": "elsamusyog@gmail.com", "addr:postcode": "10600", "name:en": null, "name:es": null, "addr:unit": null, "smoking": null, "description": null, "studio": null, "capacity": null, "wheelchair": null, "delivery": null, "takeaway": null, "internet_access": null, "internet_access:fee": null, "rooms": null, "level": null, "amenity_1": null, "name:he": null }, "geometry": { "type": "Point", "coordinates": [ -82.4044077, 23.1275272 ] } },
{ "type": "Feature", "properties": { "osm_id": 5861961785, "addr:housenumber": "314", "tourism": "guest_house", "name": "Hostal Jeny y Lourdes", "amenity": null, "operator": null, "office": null, "shop": null, "leisure": null, "phone": "+5378337425", "opening_hours": "24\/7", "addr:street": "Calle 18", "website": null, "cuisine": null, "addr:city": null, "short_name": null, "email": "lourdesteresita79@gmail.com", "addr:postcode": null, "name:en": null, "name:es": null, "addr:unit": null, "smoking": null, "description": null, "studio": null, "capacity": null, "wheelchair": null, "delivery": null, "takeaway": null, "internet_access": null, "internet_access:fee": null, "rooms": null, "level": null, "amenity_1": null, "name:he": null }, "geometry": { "type": "Point", "coordinates": [ -82.4035125, 23.1264148 ] } },
{ "type": "Feature", "properties": { "osm_id": 4006392189, "addr:housenumber": "308", "tourism": "guest_house", "name": "CasaVera", "amenity": null, "operator": "Elio Rodriguez \/ Caridad Vera", "office": null, "shop": null, "leisure": null, "phone": "+53 5 2683591", "opening_hours": null, "addr:street": "Calle 18", "website": "http:\/\/casavera.yolasite.com\/", "cuisine": null, "addr:city": "Vedado, La Habana", "short_name": null, "email": null, "addr:postcode": "10400", "name:en": null, "name:es": null, "addr:unit": null, "smoking": "separated", "description": null, "studio": null, "capacity": null, "wheelchair": null, "delivery": null, "takeaway": null, "internet_access": null, "internet_access:fee": null, "rooms": null, "level": "1", "amenity_1": null, "name:he": null }, "geometry": { "type": "Point", "coordinates": [ -82.4035543, 23.1265203 ] } },
{ "type": "Feature", "properties": { "osm_id": 3472426028, "addr:housenumber": "315 apto 3", "tourism": "guest_house", "name": "Casa Yara", "amenity": null, "operator": null, "office": null, "shop": null, "leisure": null, "phone": "+5378335878", "opening_hours": null, "addr:street": "18", "website": null, "cuisine": null, "addr:city": "Habana", "short_name": null, "email": null, "addr:postcode": "10400", "name:en": null, "name:es": null, "addr:unit": null, "smoking": null, "description": null, "studio": null, "capacity": null, "wheelchair": null, "delivery": null, "takeaway": null, "internet_access": null, "internet_access:fee": null, "rooms": null, "level": null, "amenity_1": null, "name:he": null }, "geometry": { "type": "Point", "coordinates": [ -82.4033831, 23.1265372 ] } },
{ "type": "Feature", "properties": { "osm_id": 4712379489, "addr:housenumber": "260", "tourism": "hostel", "name": "Casa TAMGUS", "amenity": null, "operator": null, "office": null, "shop": null, "leisure": null, "phone": "+5352918130", "opening_hours": null, "addr:street": "Calle 18", "website": null, "cuisine": null, "addr:city": null, "short_name": null, "email": "pasfergus@gmail.com", "addr:postcode": null, "name:en": "TAMGUS B&B", "name:es": null, "addr:unit": null, "smoking": null, "description": null, "studio": null, "capacity": null, "wheelchair": null, "delivery": null, "takeaway": null, "internet_access": null, "internet_access:fee": null, "rooms": null, "level": null, "amenity_1": null, "name:he": null }, "geometry": { "type": "Point", "coordinates": [ -82.4043162, 23.1274197 ] } },
{ "type": "Feature", "properties": { "osm_id": 5478160125, "addr:housenumber": "812", "tourism": "guest_house", "name": "Casa Yucy", "amenity": null, "operator": null, "office": null, "shop": null, "leisure": null, "phone": null, "opening_hours": null, "addr:street": "Calle 19", "website": null, "cuisine": null, "addr:city": null, "short_name": null, "email": null, "addr:postcode": null, "name:en": null, "name:es": null, "addr:unit": null, "smoking": null, "description": null, "studio": null, "capacity": null, "wheelchair": null, "delivery": null, "takeaway": null, "internet_access": null, "internet_access:fee": null, "rooms": null, "level": null, "amenity_1": null, "name:he": null }, "geometry": { "type": "Point", "coordinates": [ -82.4033485, 23.1275891 ] } },
{ "type": "Feature", "properties": { "osm_id": 6008183689, "addr:housenumber": "1147", "tourism": "apartment", "name": "Luly", "amenity": null, "operator": null, "office": null, "shop": null, "leisure": null, "phone": null, "opening_hours": null, "addr:street": "Calle 17", "website": null, "cuisine": null, "addr:city": null, "short_name": null, "email": null, "addr:postcode": null, "name:en": null, "name:es": null, "addr:unit": null, "smoking": null, "description": null, "studio": null, "capacity": null, "wheelchair": null, "delivery": null, "takeaway": null, "internet_access": null, "internet_access:fee": null, "rooms": null, "level": null, "amenity_1": null, "name:he": null }, "geometry": { "type": "Point", "coordinates": [ -82.4044276, 23.1279079 ] } },
{ "type": "Feature", "properties": { "osm_id": 5764344553, "addr:housenumber": "1174, 2 piso", "tourism": "guest_house", "name": "Apratamento Alina Domecq", "amenity": null, "operator": null, "office": null, "shop": null, "leisure": null, "phone": null, "opening_hours": "24\/7", "addr:street": "Calle 17", "website": null, "cuisine": null, "addr:city": null, "short_name": null, "email": null, "addr:postcode": null, "name:en": null, "name:es": null, "addr:unit": null, "smoking": null, "description": null, "studio": null, "capacity": null, "wheelchair": null, "delivery": null, "takeaway": null, "internet_access": null, "internet_access:fee": null, "rooms": null, "level": null, "amenity_1": null, "name:he": null }, "geometry": { "type": "Point", "coordinates": [ -82.40407, 23.1282693 ] } },
{ "type": "Feature", "properties": { "osm_id": 5003623323, "addr:housenumber": "14 y 16", "tourism": "guest_house", "name": "Cartacuba", "amenity": null, "operator": "Acelo and Yanila", "office": null, "shop": null, "leisure": null, "phone": "(0053)-7-831-1377", "opening_hours": null, "addr:street": "Calle 17", "website": "http:\/\/cartacuba.co", "cuisine": null, "addr:city": null, "short_name": null, "email": "hosteriacartacuba@yahoo.es", "addr:postcode": null, "name:en": "cartacuba", "name:es": null, "addr:unit": null, "smoking": null, "description": null, "studio": null, "capacity": null, "wheelchair": null, "delivery": null, "takeaway": null, "internet_access": null, "internet_access:fee": null, "rooms": null, "level": null, "amenity_1": null, "name:he": null }, "geometry": { "type": "Point", "coordinates": [ -82.4030996, 23.1286399 ] } },
{ "type": "Feature", "properties": { "osm_id": 4426122393, "addr:housenumber": "1159", "tourism": "hostel", "name": "Villa Capitolio", "amenity": null, "operator": null, "office": null, "shop": null, "leisure": null, "phone": "+537 831 9251", "opening_hours": null, "addr:street": "Calle 13", "website": "http:\/\/villacapitolio.com\/el-villa\/", "cuisine": null, "addr:city": null, "short_name": null, "email": "info@villacapitolio.com", "addr:postcode": null, "name:en": null, "name:es": null, "addr:unit": null, "smoking": null, "description": null, "studio": null, "capacity": null, "wheelchair": null, "delivery": null, "takeaway": null, "internet_access": null, "internet_access:fee": null, "rooms": null, "level": null, "amenity_1": null, "name:he": null }, "geometry": { "type": "Point", "coordinates": [ -82.4056111, 23.1296736 ] } },
{ "type": "Feature", "properties": { "osm_id": 5440242924, "addr:housenumber": "1155", "tourism": "guest_house", "name": "CASA LIVIA", "amenity": null, "operator": "Livia Rosa", "office": null, "shop": null, "leisure": null, "phone": "5352648234", "opening_hours": "24\/7", "addr:street": "Calle 13", "website": "https:\/\/www.airbnb.cl\/rooms\/18730828", "cuisine": null, "addr:city": null, "short_name": null, "email": "camilatp@nauta.cu", "addr:postcode": "10400", "name:en": null, "name:es": null, "addr:unit": null, "smoking": null, "description": null, "studio": null, "capacity": null, "wheelchair": null, "delivery": null, "takeaway": null, "internet_access": "wlan", "internet_access:fee": null, "rooms": null, "level": null, "amenity_1": null, "name:he": null }, "geometry": { "type": "Point", "coordinates": [ -82.4054697, 23.12975 ] } },
{ "type": "Feature", "properties": { "osm_id": 4199794954, "addr:housenumber": "152", "tourism": null, "name": "Ruta Bikes", "amenity": "bicycle_rental", "operator": "Ebert Trujillo", "office": null, "shop": null, "leisure": null, "phone": "+53 52476633", "opening_hours": "Mo-Sa 08:00-17:00; Su 08:00-08:30", "addr:street": "Calle 16", "website": "https:\/\/www.rutabikes.com\/", "cuisine": null, "addr:city": "Havana", "short_name": null, "email": null, "addr:postcode": "10400", "name:en": null, "name:es": null, "addr:unit": null, "smoking": null, "description": null, "studio": null, "capacity": null, "wheelchair": null, "delivery": null, "takeaway": null, "internet_access": null, "internet_access:fee": null, "rooms": null, "level": null, "amenity_1": "bicycle_tours", "name:he": null }, "geometry": { "type": "Point", "coordinates": [ -82.4052612, 23.1297556 ] } },
{ "type": "Feature", "properties": { "osm_id": 5499355521, "addr:housenumber": "1102", "tourism": null, "name": "Trending Up", "amenity": null, "operator": null, "office": null, "shop": "mobile_phone", "leisure": null, "phone": "+5378374411", "opening_hours": "Mo-Sa 09:00-18:00", "addr:street": "Calle 17", "website": null, "cuisine": null, "addr:city": null, "short_name": null, "email": "publicatecuba@gmail.com", "addr:postcode": "10200", "name:en": "Trending Up", "name:es": "Trending Up", "addr:unit": null, "smoking": null, "description": null, "studio": null, "capacity": null, "wheelchair": null, "delivery": null, "takeaway": null, "internet_access": null, "internet_access:fee": null, "rooms": null, "level": null, "amenity_1": null, "name:he": null }, "geometry": { "type": "Point", "coordinates": [ -82.403156, 23.1291671 ] } },
{ "type": "Feature", "properties": { "osm_id": 5682110928, "addr:housenumber": "1113", "tourism": null, "name": "L&M Mobilliario", "amenity": null, "operator": null, "office": null, "shop": "furniture", "leisure": null, "phone": "+5378309901", "opening_hours": null, "addr:street": "Calle 11", "website": null, "cuisine": null, "addr:city": null, "short_name": null, "email": "mueblesleomigue@yahoo.es", "addr:postcode": null, "name:en": null, "name:es": null, "addr:unit": null, "smoking": null, "description": null, "studio": null, "capacity": null, "wheelchair": null, "delivery": null, "takeaway": null, "internet_access": null, "internet_access:fee": null, "rooms": null, "level": null, "amenity_1": null, "name:he": null }, "geometry": { "type": "Point", "coordinates": [ -82.405681, 23.131312 ] } },
{ "type": "Feature", "properties": { "osm_id": 5543593421, "addr:housenumber": "260, Apto 7", "tourism": "guest_house", "name": "Penthouse Art Design", "amenity": null, "operator": "Ana Ivis & Alvin", "office": null, "shop": null, "leisure": null, "phone": "+53 7 833 4234", "opening_hours": "24\/7", "addr:street": "Calle 12", "website": "http:\/\/penthouseartdesign.com", "cuisine": null, "addr:city": null, "short_name": null, "email": "penthouseartdesign@gmail.com", "addr:postcode": "10400", "name:en": "Penthouse Art Design", "name:es": "Penthouse Art Design", "addr:unit": null, "smoking": null, "description": null, "studio": null, "capacity": null, "wheelchair": null, "delivery": null, "takeaway": null, "internet_access": "wlan", "internet_access:fee": null, "rooms": null, "level": null, "amenity_1": null, "name:he": null }, "geometry": { "type": "Point", "coordinates": [ -82.4036032, 23.1314562 ] } },
{ "type": "Feature", "properties": { "osm_id": 4199794955, "addr:housenumber": "301", "tourism": null, "name": "Mercado Arrendado Cuenta Propia", "amenity": null, "operator": null, "office": null, "shop": "greengrocer", "leisure": null, "phone": null, "opening_hours": null, "addr:street": "Calle 16", "website": null, "cuisine": null, "addr:city": null, "short_name": null, "email": null, "addr:postcode": null, "name:en": null, "name:es": null, "addr:unit": null, "smoking": null, "description": null, "studio": null, "capacity": null, "wheelchair": null, "delivery": null, "takeaway": null, "internet_access": null, "internet_access:fee": null, "rooms": null, "level": null, "amenity_1": null, "name:he": null }, "geometry": { "type": "Point", "coordinates": [ -82.4028222, 23.1276105 ] } },
{ "type": "Feature", "properties": { "osm_id": 5231099827, "addr:housenumber": "1115", "tourism": "hostel", "name": "Casa Hostal Guido", "amenity": null, "operator": null, "office": null, "shop": null, "leisure": null, "phone": null, "opening_hours": null, "addr:street": "Calle 19", "website": null, "cuisine": null, "addr:city": "Vedado, La Habana", "short_name": null, "email": null, "addr:postcode": null, "name:en": null, "name:es": null, "addr:unit": "e\/ 14 y 16", "smoking": null, "description": null, "studio": null, "capacity": null, "wheelchair": null, "delivery": null, "takeaway": null, "internet_access": null, "internet_access:fee": null, "rooms": null, "level": null, "amenity_1": null, "name:he": null }, "geometry": { "type": "Point", "coordinates": [ -82.4026606, 23.1280385 ] } },
{ "type": "Feature", "properties": { "osm_id": 4840996952, "addr:housenumber": "1055", "tourism": "guest_house", "name": "Villa Matilde", "amenity": null, "operator": null, "office": null, "shop": null, "leisure": null, "phone": "+5378315701", "opening_hours": "24\/7", "addr:street": "Calle 17 entre 12 y 14", "website": "https:\/\/www.cubasolidays.com\/", "cuisine": null, "addr:city": null, "short_name": null, "email": "Matilde.piloto@nauta.cu", "addr:postcode": "10400", "name:en": null, "name:es": null, "addr:unit": null, "smoking": null, "description": null, "studio": null, "capacity": null, "wheelchair": null, "delivery": null, "takeaway": null, "internet_access": null, "internet_access:fee": null, "rooms": null, "level": null, "amenity_1": null, "name:he": null }, "geometry": { "type": "Point", "coordinates": [ -82.4026435, 23.1293686 ] } },
{ "type": "Feature", "properties": { "osm_id": 4707491492, "addr:housenumber": "5", "tourism": "guest_house", "name": null, "amenity": null, "operator": "Ana Ivis", "office": null, "shop": null, "leisure": null, "phone": "6472910592", "opening_hours": null, "addr:street": "Calle 16", "website": "http:\/\/abnb.me\/EVmg\/tHcmIFKS5A", "cuisine": null, "addr:city": null, "short_name": null, "email": "anaivish21@gmail.com", "addr:postcode": "10400", "name:en": "Ocean Breeze Apartment ( Ana Ivis)", "name:es": null, "addr:unit": null, "smoking": null, "description": null, "studio": null, "capacity": null, "wheelchair": null, "delivery": null, "takeaway": null, "internet_access": null, "internet_access:fee": null, "rooms": null, "level": null, "amenity_1": null, "name:he": null }, "geometry": { "type": "Point", "coordinates": [ -82.4069134, 23.1324809 ] } },
{ "type": "Feature", "properties": { "osm_id": 5071459926, "addr:housenumber": "319", "tourism": "guest_house", "name": "Casa Fernando", "amenity": null, "operator": null, "office": null, "shop": null, "leisure": null, "phone": "+5378315795", "opening_hours": "24\/7", "addr:street": "Calle 12 entre 11 y 13", "website": null, "cuisine": null, "addr:city": null, "short_name": null, "email": "fernandobarba@nauta.cu", "addr:postcode": "10400", "name:en": "Casa Fernando", "name:es": "Casa Fernando", "addr:unit": null, "smoking": null, "description": null, "studio": null, "capacity": null, "wheelchair": null, "delivery": null, "takeaway": null, "internet_access": null, "internet_access:fee": null, "rooms": null, "level": null, "amenity_1": null, "name:he": null }, "geometry": { "type": "Point", "coordinates": [ -82.4037524, 23.1320039 ] } },
{ "type": "Feature", "properties": { "osm_id": 5136254421, "addr:housenumber": "156 apto 24", "tourism": "guest_house", "name": "Hospedaje Línea y 12", "amenity": null, "operator": null, "office": null, "shop": null, "leisure": null, "phone": "+5354630604", "opening_hours": "24\/7", "addr:street": "12", "website": "https:\/\/vacacionescubablog.wordpress.com\/", "cuisine": null, "addr:city": null, "short_name": null, "email": "robertoweisner@gmail.com", "addr:postcode": null, "name:en": "Rent house Línea y 12", "name:es": null, "addr:unit": null, "smoking": null, "description": null, "studio": null, "capacity": null, "wheelchair": null, "delivery": null, "takeaway": null, "internet_access": null, "internet_access:fee": null, "rooms": null, "level": null, "amenity_1": null, "name:he": null }, "geometry": { "type": "Point", "coordinates": [ -82.405554, 23.133537 ] } },
{ "type": "Feature", "properties": { "osm_id": 5397465121, "addr:housenumber": "1004", "tourism": null, "name": "enLinea", "amenity": null, "operator": null, "office": null, "shop": "mobile_phone", "leisure": null, "phone": "+5378363364", "opening_hours": "Mo-Sa 09:00-19:00", "addr:street": "9na. (Línea)", "website": "http:\/\/facebook.com\/enlineay12", "cuisine": null, "addr:city": null, "short_name": null, "email": "enLinea.1008@gmail.com", "addr:postcode": null, "name:en": null, "name:es": null, "addr:unit": null, "smoking": null, "description": null, "studio": null, "capacity": null, "wheelchair": null, "delivery": null, "takeaway": null, "internet_access": "wlan", "internet_access:fee": null, "rooms": null, "level": null, "amenity_1": null, "name:he": null }, "geometry": { "type": "Point", "coordinates": [ -82.4044509, 23.1336866 ] } },
{ "type": "Feature", "properties": { "osm_id": 6049270729, "addr:housenumber": "1009", "tourism": null, "name": "Archivo de la Oficina de Asuntos Históricos del Consejo de Estado", "amenity": null, "operator": null, "office": "government", "shop": null, "leisure": null, "phone": null, "opening_hours": null, "addr:street": "9na. (Línea) e\/ 10 y 12", "website": null, "cuisine": null, "addr:city": null, "short_name": null, "email": null, "addr:postcode": null, "name:en": null, "name:es": null, "addr:unit": null, "smoking": null, "description": null, "studio": null, "capacity": null, "wheelchair": null, "delivery": null, "takeaway": null, "internet_access": null, "internet_access:fee": null, "rooms": null, "level": null, "amenity_1": null, "name:he": null }, "geometry": { "type": "Point", "coordinates": [ -82.4042834, 23.1332225 ] } },
{ "type": "Feature", "properties": { "osm_id": 6419699134, "addr:housenumber": "El Bosco, apto 20", "tourism": "guest_house", "name": "Casa Cosette", "amenity": null, "operator": null, "office": null, "shop": null, "leisure": null, "phone": "5352689288, 5347385064, 5353353747", "opening_hours": "Mo-Su 12:00-12:00", "addr:street": null, "website": null, "cuisine": null, "addr:city": null, "short_name": null, "email": null, "addr:postcode": null, "name:en": null, "name:es": null, "addr:unit": null, "smoking": null, "description": "Apartamento independiente nuevo acogedor con: 1 cuarto con dos camas, sala, saleta, baño, cocina.", "studio": null, "capacity": null, "wheelchair": null, "delivery": null, "takeaway": null, "internet_access": null, "internet_access:fee": null, "rooms": null, "level": null, "amenity_1": null, "name:he": null }, "geometry": { "type": "Point", "coordinates": [ -82.403761, 23.1332164 ] } },
{ "type": "Feature", "properties": { "osm_id": 4205600090, "addr:housenumber": "669", "tourism": null, "name": "Bodega U-244", "amenity": null, "operator": null, "office": null, "shop": "yes", "leisure": null, "phone": null, "opening_hours": null, "addr:street": "Línea", "website": null, "cuisine": null, "addr:city": "La Habana", "short_name": null, "email": null, "addr:postcode": null, "name:en": null, "name:es": null, "addr:unit": null, "smoking": null, "description": null, "studio": null, "capacity": null, "wheelchair": null, "delivery": null, "takeaway": null, "internet_access": null, "internet_access:fee": null, "rooms": null, "level": null, "amenity_1": null, "name:he": null }, "geometry": { "type": "Point", "coordinates": [ -82.4039113, 23.1337365 ] } },
{ "type": "Feature", "properties": { "osm_id": 4586483496, "addr:housenumber": "165", "tourism": "guest_house", "name": "Casa ColonialSofia", "amenity": null, "operator": null, "office": null, "shop": null, "leisure": null, "phone": null, "opening_hours": null, "addr:street": "Calle 10", "website": null, "cuisine": null, "addr:city": null, "short_name": null, "email": null, "addr:postcode": null, "name:en": null, "name:es": "Casa ColonialSofia", "addr:unit": null, "smoking": null, "description": null, "studio": null, "capacity": null, "wheelchair": null, "delivery": null, "takeaway": null, "internet_access": null, "internet_access:fee": null, "rooms": null, "level": null, "amenity_1": null, "name:he": null }, "geometry": { "type": "Point", "coordinates": [ -82.4038575, 23.1337009 ] } },
{ "type": "Feature", "properties": { "osm_id": 4590144993, "addr:housenumber": "951", "tourism": "guest_house", "name": "Sylvain House", "amenity": null, "operator": null, "office": null, "shop": null, "leisure": null, "phone": "+5378311861", "opening_hours": "24\/7", "addr:street": "9na. (Línea)", "website": "https:\/\/m.facebook.com\/sylvainhousecuba\/", "cuisine": null, "addr:city": null, "short_name": null, "email": "oceanviewhouse16@gmail.com", "addr:postcode": "10400", "name:en": null, "name:es": null, "addr:unit": null, "smoking": null, "description": null, "studio": null, "capacity": null, "wheelchair": null, "delivery": null, "takeaway": null, "internet_access": null, "internet_access:fee": null, "rooms": null, "level": null, "amenity_1": null, "name:he": null }, "geometry": { "type": "Point", "coordinates": [ -82.4032567, 23.1342437 ] } },
{ "type": "Feature", "properties": { "osm_id": 4343225736, "addr:housenumber": "852", "tourism": null, "name": "La Diana", "amenity": "restaurant", "operator": null, "office": null, "shop": null, "leisure": null, "phone": "+5378356154", "opening_hours": null, "addr:street": "Calle 12", "website": null, "cuisine": "international", "addr:city": "La Habana", "short_name": null, "email": null, "addr:postcode": null, "name:en": null, "name:es": null, "addr:unit": null, "smoking": null, "description": null, "studio": null, "capacity": null, "wheelchair": null, "delivery": null, "takeaway": null, "internet_access": null, "internet_access:fee": null, "rooms": null, "level": null, "amenity_1": null, "name:he": "בית חבד" }, "geometry": { "type": "Point", "coordinates": [ -82.4069075, 23.1355728 ] } },
{ "type": "Feature", "properties": { "osm_id": 4706355042, "addr:housenumber": "60", "tourism": "hotel", "name": "La Colonial 1861", "amenity": null, "operator": null, "office": null, "shop": null, "leisure": null, "phone": "005378301861", "opening_hours": null, "addr:street": "Calle 10", "website": null, "cuisine": null, "addr:city": null, "short_name": null, "email": null, "addr:postcode": null, "name:en": null, "name:es": "La Colonial 1861", "addr:unit": null, "smoking": null, "description": null, "studio": null, "capacity": null, "wheelchair": null, "delivery": null, "takeaway": null, "internet_access": null, "internet_access:fee": null, "rooms": null, "level": null, "amenity_1": null, "name:he": null }, "geometry": { "type": "Point", "coordinates": [ -82.4058944, 23.1357769 ] } },
{ "type": "Feature", "properties": { "osm_id": 5358044736, "addr:housenumber": "603", "tourism": "guest_house", "name": "Casa Birmania", "amenity": null, "operator": null, "office": null, "shop": null, "leisure": null, "phone": null, "opening_hours": null, "addr:street": "3ra", "website": null, "cuisine": null, "addr:city": "La Habana", "short_name": null, "email": null, "addr:postcode": "10400", "name:en": null, "name:es": null, "addr:unit": null, "smoking": null, "description": null, "studio": null, "capacity": null, "wheelchair": null, "delivery": null, "takeaway": null, "internet_access": null, "internet_access:fee": null, "rooms": null, "level": null, "amenity_1": null, "name:he": null }, "geometry": { "type": "Point", "coordinates": [ -82.4064136, 23.1359356 ] } },
{ "type": "Feature", "properties": { "osm_id": 4490727994, "addr:housenumber": "55", "tourism": "guest_house", "name": "Casa Rodríguez", "amenity": null, "operator": null, "office": null, "shop": null, "leisure": null, "phone": "+5378339020", "opening_hours": "24\/7", "addr:street": "Calle 10", "website": null, "cuisine": null, "addr:city": null, "short_name": null, "email": null, "addr:postcode": null, "name:en": null, "name:es": null, "addr:unit": null, "smoking": null, "description": null, "studio": null, "capacity": null, "wheelchair": null, "delivery": null, "takeaway": null, "internet_access": null, "internet_access:fee": null, "rooms": null, "level": null, "amenity_1": null, "name:he": null }, "geometry": { "type": "Point", "coordinates": [ -82.4059712, 23.1359168 ] } },
{ "type": "Feature", "properties": { "osm_id": 5072500043, "addr:housenumber": "22", "tourism": "guest_house", "name": "Renta de Habitaciones", "amenity": null, "operator": null, "office": null, "shop": null, "leisure": null, "phone": "+5378336335", "opening_hours": "24\/7", "addr:street": "Calle 10", "website": null, "cuisine": null, "addr:city": null, "short_name": null, "email": null, "addr:postcode": null, "name:en": null, "name:es": "Renta de Habitaciones", "addr:unit": null, "smoking": null, "description": null, "studio": null, "capacity": null, "wheelchair": null, "delivery": null, "takeaway": null, "internet_access": null, "internet_access:fee": null, "rooms": null, "level": null, "amenity_1": null, "name:he": null }, "geometry": { "type": "Point", "coordinates": [ -82.40685, 23.1366231 ] } },
{ "type": "Feature", "properties": { "osm_id": 3381690717, "addr:housenumber": "106", "tourism": null, "name": "La Catedral", "amenity": "restaurant", "operator": null, "office": null, "shop": null, "leisure": null, "phone": "+5378300793", "opening_hours": "Mo-Su 11:30-00:00", "addr:street": "Calle 8", "website": "https:\/\/www.alamesacuba.com\/es\/la-habana\/restaurant\/la-catedral\/", "cuisine": "cuban", "addr:city": null, "short_name": null, "email": null, "addr:postcode": "10400", "name:en": null, "name:es": "La Catedral", "addr:unit": null, "smoking": "outside", "description": null, "studio": null, "capacity": null, "wheelchair": null, "delivery": null, "takeaway": null, "internet_access": null, "internet_access:fee": null, "rooms": null, "level": null, "amenity_1": null, "name:he": null }, "geometry": { "type": "Point", "coordinates": [ -82.4043497, 23.1355716 ] } },
{ "type": "Feature", "properties": { "osm_id": 5262990733, "addr:housenumber": "702", "tourism": "guest_house", "name": "5ta y 8", "amenity": null, "operator": null, "office": null, "shop": null, "leisure": null, "phone": null, "opening_hours": null, "addr:street": "Calle 5", "website": null, "cuisine": null, "addr:city": null, "short_name": null, "email": null, "addr:postcode": null, "name:en": null, "name:es": "5ta y 8", "addr:unit": null, "smoking": null, "description": null, "studio": null, "capacity": null, "wheelchair": null, "delivery": null, "takeaway": null, "internet_access": "wlan", "internet_access:fee": null, "rooms": null, "level": null, "amenity_1": null, "name:he": null }, "geometry": { "type": "Point", "coordinates": [ -82.4048549, 23.1361329 ] } },
{ "type": "Feature", "properties": { "osm_id": 6563392085, "addr:housenumber": "\/ 5ta y calzada", "tourism": null, "name": "Toto y Pepino", "amenity": "restaurant", "operator": null, "office": null, "shop": null, "leisure": null, "phone": null, "opening_hours": null, "addr:street": "Calle 8", "website": null, "cuisine": null, "addr:city": null, "short_name": null, "email": null, "addr:postcode": null, "name:en": null, "name:es": null, "addr:unit": null, "smoking": null, "description": null, "studio": null, "capacity": null, "wheelchair": null, "delivery": null, "takeaway": null, "internet_access": null, "internet_access:fee": null, "rooms": null, "level": null, "amenity_1": null, "name:he": null }, "geometry": { "type": "Point", "coordinates": [ -82.4044519, 23.1358761 ] } },
{ "type": "Feature", "properties": { "osm_id": 4551617898, "addr:housenumber": "115", "tourism": "guest_house", "name": "Casa de Skeeter", "amenity": null, "operator": null, "office": null, "shop": null, "leisure": null, "phone": null, "opening_hours": null, "addr:street": "Calle 6", "website": null, "cuisine": null, "addr:city": null, "short_name": null, "email": null, "addr:postcode": null, "name:en": "Casa de Skeeter AirBnB", "name:es": null, "addr:unit": null, "smoking": null, "description": null, "studio": null, "capacity": null, "wheelchair": null, "delivery": null, "takeaway": null, "internet_access": null, "internet_access:fee": null, "rooms": null, "level": null, "amenity_1": null, "name:he": null }, "geometry": { "type": "Point", "coordinates": [ -82.4030983, 23.1360447 ] } },
{ "type": "Feature", "properties": { "osm_id": 4568217190, "addr:housenumber": "115", "tourism": "guest_house", "name": "Casa de Skeeter", "amenity": null, "operator": "Scott", "office": null, "shop": null, "leisure": null, "phone": "+5358471291", "opening_hours": null, "addr:street": "Calle 6", "website": null, "cuisine": null, "addr:city": null, "short_name": null, "email": "scott@scottcrowe.com", "addr:postcode": null, "name:en": "Skeeter's Home", "name:es": null, "addr:unit": null, "smoking": null, "description": null, "studio": null, "capacity": null, "wheelchair": null, "delivery": null, "takeaway": null, "internet_access": null, "internet_access:fee": null, "rooms": null, "level": null, "amenity_1": null, "name:he": null }, "geometry": { "type": "Point", "coordinates": [ -82.4030998, 23.1361168 ] } }
]
}
